SL-16 R/B               
1 24298U 96051B   26162.64906571  .00000116  00000+0  89442-4 0  9999
2 24298  70.7638 336.3698 0014996 345.2768  14.7912 14.12444049534919
ORBVIEW 2 (SEASTAR)     
1 24883U 97037A   26162.44403201  .00000190  00000+0  82157-4 0  9992
2 24883  98.8682 329.3041 0003038 127.6428 232.5032 14.35550492521928
SL-16 R/B               
1 25400U 98043G   26162.60960356  .00000026  00000+0  29848-4 0  9999
2 25400  98.8362 116.7209 0010922 100.8866 259.3542 14.26067680452379
SL-16 R/B               
1 25407U 98045B   26162.65594250 -.00000128  00000+0 -40570-4 0  9999
2 25407  71.0121 343.9624 0009499 248.6804 111.3306 14.16204865440400
ISS (ZARYA)             
1 25544U 98067A   26162.51298014  .00008593  00000+0  16294-3 0  9996
2 25544  51.6332 328.1749 0005119 173.4651 186.6405 15.49175527570872
CZ-4B R/B               
1 25732U 99025C   26162.71558372  .00000033  00000+0  36596-4 0  9997
2 25732  98.6485 204.6916 0038210  74.9533  35.5452 14.18282562401495
OKEAN-O                 
1 25860U 99039A   26162.67019711  .00000501  00000+0  72263-4 0  9999
2 25860  97.9317 221.5312 0001738  75.6800 284.4605 14.80460687448290
SL-16 R/B               
1 25861U 99039B   26162.69710904  .00000404  00000+0  57946-4 0  9997
2 25861  97.9838 221.5756 0013770 316.3327  43.6796 14.81839823450785
DELTA 2 R/B             
1 25876U 99041E   26162.65456808  .00000741  00000+0  15698-3 0  9993
2 25876  51.7663 285.8973 0500872 265.6608  88.6960 14.12006108376304
HELIOS 1B               
1 25977U 99064A   26162.66452308  .00001206  00000+0  13780-3 0  9999
2 25977  98.1620  67.6443 0002470  98.5295 261.6201 14.87992334699236
TERRA                   
1 25994U 99068A   26162.68540744  .00000325  00000+0  75102-4 0  9994
2 25994  97.9458 212.4496 0001173 212.4483 258.7120 14.61098743408805
SL-16 R/B               
1 26070U 00006B   26162.69573177 -.00000274  00000+0 -11472-3 0  9995
2 26070  71.0027 260.1719 0015235  31.5761 328.6273 14.15835303361867
TITAN 4B R/B            
1 26474U 00047B   26162.69556860  .00002843  00000+0  17795-3 0  9994
2 26474  67.9872 136.0303 0045613 292.7819  66.8515 15.10165325407109
ENVISAT                 
1 27386U 02009A   26162.63983580  .00000060  00000+0  33168-4 0  9996
2 27386  98.3832 114.0820 0001345  90.1775  87.9707 14.39063514272688
IDEFIX & ARIANE 42P R/B 
1 27422U 02021B   26162.67602801  .00000173  00000+0  82129-4 0  9995
2 27422  98.5943 100.2189 0010584 272.0397  87.9574 14.31079603257464
AQUA                    
1 27424U 02022A   26162.71457288  .00000679  00000+0  14483-3 0  9998
2 27424  98.4275 131.8881 0001323  53.1553 358.2903 14.62149926282474
CZ-4B R/B               
1 27432U 02024C   26162.66264661  .00000024  00000+0  34796-4 0  9998
2 27432  98.8701 215.5185 0051142 115.6006 357.3882 14.14563464242521
MIDORI II (ADEOS-II)    
1 27597U 02056A   26162.60793468  .00000219  00000+0  10382-3 0  9991
2 27597  98.7876 121.8204 0002223  84.4663 275.6772 14.29346656223712
H-2A R/B                
1 27601U 02056E   26162.50830605  .00000157  00000+0  69715-4 0  9997
2 27601  98.3310 119.3899 0068976 241.7283 227.9874 14.33819676227553
CZ-4B R/B               
1 28059U 03049C   26162.59260823  .00000272  00000+0  74013-4 0  9991
2 28059  98.6895 161.2164 0047136 306.0717  53.6118 14.55096543200252
CZ-2C R/B               
1 28222U 04012C   26162.70825785  .00091630  00000+0  53842-3 0  9995
2 28222  97.7095 237.7383 0008953 307.3545  52.6905 15.77933342219036
SL-16 R/B               
1 28353U 04021B   26162.64574865 -.00000275  00000+0 -11804-3 0  9992
2 28353  71.0016  35.3198 0007450 261.1809  98.8470 14.14610871136122
CZ-4B R/B               
1 28415U 04035C   26162.64100424  .00007555  00000+0  25480-3 0  9993
2 28415  97.3373 195.7768 0030571 358.1891   1.9235 15.30545786194275
CZ-2C R/B               
1 28480U 04046B   26162.65227212  .00000043  00000+0  31630-4 0  9993
2 28480  98.1949  71.7788 0138252 236.7447 122.0424 14.27025319121908
ARIANE 5 R/B            
1 28499U 04049H   26162.47199212  .00000601  00000+0  72443-4 0  9991
2 28499  98.2716 334.5044 0084848  47.7848 313.0527 14.85441248159715
CZ-2D R/B               
1 28738U 05024B   26162.67163557  .00052370  00000+0  45434-3 0  9995
2 28738  97.3492 181.8269 0004263  64.7947 295.3756 15.68959215154470
ALOS (DAICHI)           
1 28931U 06002A   26162.44104764  .00000858  00000+0  15132-3 0  9993
2 28931  98.1322 118.0264 0001667  58.7526 301.3843 14.70038394 87258
H-2A R/B                
1 28932U 06002B   26162.38575122  .00005627  00000+0  27216-3 0  9992
2 28932  98.2553 317.6909 0049634 282.5768  76.9915 15.17987423108640
RESURS-DK 1             
1 29228U 06021A   26162.68096205  .00002244  00000+0  13218-3 0  9994
2 29228  69.9338 353.8061 0006682 296.0141  64.0336 15.13193083101743
CZ-4B R/B               
1 29507U 06046C   26162.64896314  .00003527  00000+0  17611-3 0  9992
2 29507  97.5460 207.2730 0031193 303.0291  56.7947 15.17743831 74292
CZ-2C R/B               
1 31114U 07010B   26162.28315156  .00000056  00000+0  44432-4 0  9997
2 31114  98.4093 270.9230 0059373  23.2361 337.1481 14.20274873993008
