OBJECT_NAME,OBJECT_ID,EPOCH,MEAN_MOTION,ECCENTRICITY,INCLINATION,RA_OF_ASC_NODE,ARG_OF_PERICENTER,MEAN_ANOMALY,EPHEMERIS_TYPE,CLASSIFICATION_TYPE,NORAD_CAT_ID,ELEMENT_SET_NO,REV_AT_EPOCH,BSTAR,MEAN_MOTION_DOT,MEAN_MOTION_DDOT
SL-16 R/B,1996-051B,2026-06-11T15:34:39.277344,14.12444049,.0014996,70.7638,336.3698,345.2768,14.7912,0,U,24298,999,53491,.89442E-4,.116E-5,0
ORBVIEW 2 (SEASTAR),1997-037A,2026-06-11T10:39:24.365664,14.35550492,.0003038,98.8682,329.3041,127.6428,232.5032,0,U,24883,999,52192,.82157E-4,.19E-5,0
SL-16 R/B,1998-043G,2026-06-11T14:37:49.747584,14.26067680,.0010922,98.8362,116.7209,100.8866,259.3542,0,U,25400,999,45237,.29848E-4,.26E-6,0
SL-16 R/B,1998-045B,2026-06-11T15:44:33.432000,14.16204865,.0009499,71.0121,343.9624,248.6804,111.3306,0,U,25407,999,44040,-.4057E-4,-.128E-5,0
ISS (ZARYA),1998-067A,2026-06-11T12:18:41.484096,15.49175527,.0005119,51.6332,328.1749,173.4651,186.6405,0,U,25544,999,57087,.16294E-3,.8593E-4,0
CZ-4B R/B,1999-025C,2026-06-11T17:10:26.433408,14.18282562,.003821,98.6485,204.6916,74.9533,35.5452,0,U,25732,999,40149,.36596E-4,.33E-6,0
OKEAN-O,1999-039A,2026-06-11T16:05:05.030304,14.80460687,.0001738,97.9317,221.5312,75.6800,284.4605,0,U,25860,999,44829,.72263E-4,.501E-5,0
SL-16 R/B,1999-039B,2026-06-11T16:43:50.221056,14.81839823,.001377,97.9838,221.5756,316.3327,43.6796,0,U,25861,999,45078,.57946E-4,.404E-5,0
DELTA 2 R/B,1999-041E,2026-06-11T15:42:34.682112,14.12006108,.0500872,51.7663,285.8973,265.6608,88.6960,0,U,25876,999,37630,.15698E-3,.741E-5,0
HELIOS 1B,1999-064A,2026-06-11T15:56:54.794112,14.87992334,.000247,98.1620,67.6443,98.5295,261.6201,0,U,25977,999,69923,.1378E-3,.1206E-4,0
TERRA,1999-068A,2026-06-11T16:26:59.202816,14.61098743,.0001173,97.9458,212.4496,212.4483,258.7120,0,U,25994,999,40880,.75102E-4,.325E-5,0
SL-16 R/B,2000-006B,2026-06-11T16:41:51.224928,14.15835303,.0015235,71.0027,260.1719,31.5761,328.6273,0,U,26070,999,36186,-.11472E-3,-.274E-5,0
TITAN 4B R/B,2000-047B,2026-06-11T16:41:37.127040,15.10165325,.0045613,67.9872,136.0303,292.7819,66.8515,0,U,26474,999,40710,.17795E-3,.2843E-4,0
ENVISAT,2002-009A,2026-06-11T15:21:21.813120,14.39063514,.0001345,98.3832,114.0820,90.1775,87.9707,0,U,27386,999,27268,.33168E-4,.6E-6,0
IDEFIX & ARIANE 42P R/B,2002-021B,2026-06-11T16:13:28.820064,14.31079603,.0010584,98.5943,100.2189,272.0397,87.9574,0,U,27422,999,25746,.82129E-4,.173E-5,0
AQUA,2002-022A,2026-06-11T17:08:59.096832,14.62149926,.0001323,98.4275,131.8881,53.1553,358.2903,0,U,27424,999,28247,.14483E-3,.679E-5,0
CZ-4B R/B,2002-024C,2026-06-11T15:54:12.667104,14.14563464,.0051142,98.8701,215.5185,115.6006,357.3882,0,U,27432,999,24252,.34796E-4,.24E-6,0
MIDORI II (ADEOS-II),2002-056A,2026-06-11T14:35:25.556352,14.29346656,.0002223,98.7876,121.8204,84.4663,275.6772,0,U,27597,999,22371,.10382E-3,.219E-5,0
H-2A R/B,2002-056E,2026-06-11T12:11:57.642720,14.33819676,.0068976,98.3310,119.3899,241.7283,227.9874,0,U,27601,999,22755,.69715E-4,.157E-5,0
CZ-4B R/B,2003-049C,2026-06-11T14:13:21.351072,14.55096543,.0047136,98.6895,161.2164,306.0717,53.6118,0,U,28059,999,20025,.74013E-4,.272E-5,0
CZ-2C R/B,2004-012C,2026-06-11T16:59:53.478240,15.77933342,.0008953,97.7095,237.7383,307.3545,52.6905,0,U,28222,999,21903,.53842E-3,.9163E-3,0
SL-16 R/B,2004-021B,2026-06-11T15:29:52.683360,14.14610871,.000745,71.0016,35.3198,261.1809,98.8470,0,U,28353,999,13612,-.11804E-3,-.275E-5,0
CZ-4B R/B,2004-035C,2026-06-11T15:23:02.766336,15.30545786,.0030571,97.3373,195.7768,358.1891,1.9235,0,U,28415,999,19427,.2548E-3,.7555E-4,0
CZ-2C R/B,2004-046B,2026-06-11T15:39:16.311168,14.27025319,.0138252,98.1949,71.7788,236.7447,122.0424,0,U,28480,999,12190,.3163E-4,.43E-6,0
ARIANE 5 R/B,2004-049H,2026-06-11T11:19:40.119168,14.85441248,.0084848,98.2716,334.5044,47.7848,313.0527,0,U,28499,999,15971,.72443E-4,.601E-5,0
CZ-2D R/B,2005-024B,2026-06-11T16:07:09.313248,15.68959215,.0004263,97.3492,181.8269,64.7947,295.3756,0,U,28738,999,15447,.45434E-3,.5237E-3,0
ALOS (DAICHI),2006-002A,2026-06-11T10:35:06.516096,14.70038394,.0001667,98.1322,118.0264,58.7526,301.3843,0,U,28931,999,8725,.15132E-3,.858E-5,0
H-2A R/B,2006-002B,2026-06-11T09:15:28.905408,15.17987423,.0049634,98.2553,317.6909,282.5768,76.9915,0,U,28932,999,10864,.27216E-3,.5627E-4,0
RESURS-DK 1,2006-021A,2026-06-11T16:20:35.121120,15.13193083,.0006682,69.9338,353.8061,296.0141,64.0336,0,U,29228,999,10174,.13218E-3,.2244E-4,0
CZ-4B R/B,2006-046C,2026-06-11T15:34:30.415296,15.17743831,.0031193,97.5460,207.2730,303.0291,56.7947,0,U,29507,999,7429,.17611E-3,.3527E-4,0
CZ-2C R/B,2007-010B,2026-06-11T06:47:44.294784,14.20274873,.0059373,98.4093,270.9230,23.2361,337.1481,0,U,31114,999,99300,.44432E-4,.56E-6,0
